OBJECT_NAME,OBJECT_ID,EPOCH,MEAN_MOTION,ECCENTRICITY,INCLINATION,RA_OF_ASC_NODE,ARG_OF_PERICENTER,MEAN_ANOMALY,EPHEMERIS_TYPE,CLASSIFICATION_TYPE,NORAD_CAT_ID,ELEMENT_SET_NO,REV_AT_EPOCH,BSTAR,MEAN_MOTION_DOT,MEAN_MOTION_DDOT
QIANFAN-206,2026-153F,2026-07-15T12:40:55.456896,14.24034506,.00079612,88.9922,359.0105,181.8809,178.2354,0,U,69805,999,159,.23032931E-4,.67E-6,0
QIANFAN-207,2026-153G,2026-07-15T12:39:04.209984,14.24250208,.00073891,88.9922,359.0104,181.8915,178.2250,0,U,69806,999,159,.15562612E-4,.51E-6,0
QIANFAN-208,2026-153H,2026-07-15T12:38:02.210208,14.25461995,.00081917,88.9921,359.0101,182.6104,177.5048,0,U,69807,999,159,.69506841E-4,.179E-5,0
QIANFAN-209,2026-153J,2026-07-15T12:39:20.587968,14.23089229,.00074698,88.9915,359.0097,177.9334,182.1890,0,U,69808,999,159,.14611921E-4,.48E-6,0
QIANFAN-210,2026-153K,2026-07-15T09:11:49.117632,14.21276921,.00077237,88.9915,359.0262,185.4445,174.6663,0,U,69809,999,157,-.92638069E+0,-.1876507E-1,0
QIANFAN-211,2026-153L,2026-07-15T10:52:27.212736,14.21896197,.00060095,88.9913,359.0182,176.2905,183.8332,0,U,69810,999,158,-.9207223E+0,-.1886038E-1,0
QIANFAN-212,2026-153M,2026-07-15T10:51:17.223552,14.21876559,.00063036,88.9917,359.0179,173.1887,186.9391,0,U,69811,999,158,-.83872511E+0,-.1709202E-1,0
QIANFAN-213,2026-153N,2026-07-15T12:32:32.111232,14.22491212,.0007202,88.9919,359.0101,167.6048,192.5322,0,U,69812,999,159,-.88699906E+0,-.1840864E-1,0
QIANFAN-214,2026-153P,2026-07-15T12:34:49.292832,14.26714831,.00078022,88.9922,359.0099,183.1409,176.9737,0,U,69813,999,159,.9400298E-5,.37E-6,0
QIANFAN-215,2026-153Q,2026-07-15T12:32:58.186752,14.23024323,.00067956,88.9914,359.0098,157.3926,202.7567,0,U,69814,999,159,-.92298225E+0,-.1928371E-1,0
QIANFAN-216,2026-153R,2026-07-15T12:34:46.620480,14.26719218,.00078036,88.9922,359.0099,184.3650,175.7477,0,U,69815,999,159,.18269077E-4,.59E-6,0
QIANFAN-217,2026-153S,2026-07-15T12:34:13.259712,14.26768004,.00075374,88.9920,359.0096,180.6699,179.4486,0,U,69816,999,159,.22361321E-4,.69E-6,0
QIANFAN-218,2026-153T,2026-07-15T12:33:45.383616,14.26810614,.00073242,88.9923,359.0099,177.8626,182.2600,0,U,69817,999,159,.5007159E-4,.136E-5,0
STARLINK-37520,2026-154A,2026-07-15T14:00:01.999872,15.82639801,.00010743,53.1592,291.0117,54.3978,356.3333,0,U,69819,999,273,-.94837635E-2,-.1791122E-1,0
STARLINK-37553,2026-154B,2026-07-15T14:00:01.999872,15.82712946,.00006054,53.1589,291.0027,76.5010,338.3586,0,U,69820,999,273,-.91838662E-2,-.1710151E-1,0
STARLINK-37561,2026-154C,2026-07-15T14:00:01.999872,15.82789187,.00008744,53.1590,290.9943,77.5601,341.4275,0,U,69821,999,273,-.90058033E-2,-.1687053E-1,0
STARLINK-37521,2026-154D,2026-07-15T14:00:01.999872,15.82948817,.00010114,53.1591,290.9861,63.2951,359.6680,0,U,69822,999,273,-.87155632E-2,-.165088E-1,0
STARLINK-37628,2026-154E,2026-07-15T14:00:01.999872,15.83111526,.00014007,53.1587,290.9777,50.8709,16.1589,0,U,69823,999,273,-.94466879E-2,-.182085E-1,0
STARLINK-37695,2026-154F,2026-07-15T14:00:01.999872,15.86749443,.00011219,53.1589,290.9210,52.2791,42.2040,0,U,69824,999,273,-.87393679E-2,-.1985447E-1,0
STARLINK-37690,2026-154G,2026-07-15T14:00:01.999872,15.83258067,.00007397,53.1589,290.9614,65.7986,9.2980,0,U,69825,999,273,-.86443057E-2,-.1660088E-1,0
STARLINK-37710,2026-154H,2026-07-15T14:00:01.999872,15.83335038,.00008073,53.1590,290.9526,72.9248,6.2391,0,U,69826,999,273,-.84046677E-2,-.1625323E-1,0
STARLINK-38031,2026-154J,2026-07-15T14:00:01.999872,15.83544127,.00009187,53.1588,290.9442,74.0127,9.1018,0,U,69827,999,273,-.93034879E-2,-.1829121E-1,0
STARLINK-38001,2026-154K,2026-07-15T14:00:01.999872,15.83671790,.00010816,53.1590,290.9365,58.7796,28.2782,0,U,69828,999,273,-.92102387E-2,-.1822946E-1,0
STARLINK-37622,2026-154L,2026-07-15T14:00:01.999872,15.83800929,.00010654,53.1586,290.9283,64.5311,26.4687,0,U,69829,999,273,-.91762713E-2,-.1826957E-1,0
STARLINK-37621,2026-154M,2026-07-15T14:00:01.999872,15.83950429,.00009484,53.1588,290.9202,68.2360,26.6182,0,U,69830,999,273,-.90916053E-2,-.1823535E-1,0
STARLINK-37918,2026-154N,2026-07-15T14:00:01.999872,15.84103543,.00009591,53.1587,290.9122,75.3940,23.2826,0,U,69831,999,273,-.90038532E-2,-.1819842E-1,0
STARLINK-37887,2026-154P,2026-07-15T14:00:01.999872,15.84257381,.00010872,53.1590,290.9043,63.8529,38.6146,0,U,69832,999,273,-.88978966E-2,-.177419E-1,0
STARLINK-37624,2026-154Q,2026-07-15T14:00:01.999872,15.84345113,.00010592,53.1590,290.8961,64.4162,42.0612,0,U,69833,999,273,-.88883214E-2,-.1817946E-1,0
STARLINK-37769,2026-154R,2026-07-15T14:00:01.999872,15.84450190,.00011673,53.1587,290.8879,67.5394,42.8796,0,U,69834,999,273,-.88562585E-2,-.1781353E-1,0
