QIANFAN-206             
1 69805U 26153F   26196.52841964  .00000067  00000+0  23033-4 0  9995
2 69805  88.9922 359.0105 0007961 181.8809 178.2354 14.24034506  1593
QIANFAN-207             
1 69806U 26153G   26196.52713206  .00000051  00000+0  15563-4 0  9995
2 69806  88.9922 359.0104 0007389 181.8915 178.2250 14.24250208  1599
QIANFAN-208             
1 69807U 26153H   26196.52641447  .00000179  00000+0  69507-4 0  9991
2 69807  88.9921 359.0101 0008191 182.6104 177.5048 14.25461995  1592
QIANFAN-209             
1 69808U 26153J   26196.52732162  .00000048  00000+0  14612-4 0  9999
2 69808  88.9915 359.0097 0007469 177.9334 182.1890 14.23089229  1590
QIANFAN-210             
1 69809U 26153K   26196.38320738 -.01876507  00000+0 -92638+0 0  9999
2 69809  88.9915 359.0262 0007723 185.4445 174.6663 14.21276921  1572
QIANFAN-211             
1 69810U 26153L   26196.45309274 -.01886038  00000+0 -92072+0 0  9993
2 69810  88.9913 359.0182 0006009 176.2905 183.8332 14.21896197  1587
QIANFAN-212             
1 69811U 26153M   26196.45228268 -.01709202  00000+0 -83873+0 0  9993
2 69811  88.9917 359.0179 0006303 173.1887 186.9391 14.21876559  1589
QIANFAN-213             
1 69812U 26153N   26196.52259388 -.01840864  00000+0 -88700+0 0  9993
2 69812  88.9919 359.0101 0007202 167.6048 192.5322 14.22491212  1591
QIANFAN-214             
1 69813U 26153P   26196.52418163  .00000037  00000+0  94003-5 0  9998
2 69813  88.9922 359.0099 0007802 183.1409 176.9737 14.26714831  1597
QIANFAN-215             
1 69814U 26153Q   26196.52289568 -.01928371  00000+0 -92298+0 0  9995
2 69814  88.9914 359.0098 0006795 157.3926 202.7567 14.23024323  1591
QIANFAN-216             
1 69815U 26153R   26196.52415070  .00000059  00000+0  18269-4 0  9997
2 69815  88.9922 359.0099 0007803 184.3650 175.7477 14.26719218  1593
QIANFAN-217             
1 69816U 26153S   26196.52376458  .00000069  00000+0  22361-4 0  9993
2 69816  88.9920 359.0096 0007537 180.6699 179.4486 14.26768004  1593
QIANFAN-218             
1 69817U 26153T   26196.52344194  .00000136  00000+0  50072-4 0  9991
2 69817  88.9923 359.0099 0007324 177.8626 182.2600 14.26810614  1597
STARLINK-37520          
1 69819U 26154A   26196.58335648 -.01791122  00000+0 -94838-2 0  9995
2 69819  53.1592 291.0117 0001074  54.3978 356.3333 15.82639801  2730
STARLINK-37553          
1 69820U 26154B   26196.58335648 -.01710151  00000+0 -91839-2 0  9998
2 69820  53.1589 291.0027 0000605  76.5010 338.3586 15.82712946  2732
STARLINK-37561          
1 69821U 26154C   26196.58335648 -.01687053  00000+0 -90058-2 0  9995
2 69821  53.1590 290.9943 0000874  77.5601 341.4275 15.82789187  2736
STARLINK-37521          
1 69822U 26154D   26196.58335648 -.01650880  00000+0 -87156-2 0  9999
2 69822  53.1591 290.9861 0001011  63.2951 359.6680 15.82948817  2739
STARLINK-37628          
1 69823U 26154E   26196.58335648 -.01820850  00000+0 -94467-2 0  9999
2 69823  53.1587 290.9777 0001400  50.8709  16.1589 15.83111526  2739
STARLINK-37695          
1 69824U 26154F   26196.58335648 -.01985447  00000+0 -87394-2 0  9995
2 69824  53.1589 290.9210 0001121  52.2791  42.2040 15.86749443  2731
STARLINK-37690          
1 69825U 26154G   26196.58335648 -.01660088  00000+0 -86443-2 0  9991
2 69825  53.1589 290.9614 0000739  65.7986   9.2980 15.83258067  2739
STARLINK-37710          
1 69826U 26154H   26196.58335648 -.01625323  00000+0 -84047-2 0  9993
2 69826  53.1590 290.9526 0000807  72.9248   6.2391 15.83335038  2738
STARLINK-38031          
1 69827U 26154J   26196.58335648 -.01829121  00000+0 -93035-2 0  9993
2 69827  53.1588 290.9442 0000918  74.0127   9.1018 15.83544127  2734
STARLINK-38001          
1 69828U 26154K   26196.58335648 -.01822946  00000+0 -92102-2 0  9996
2 69828  53.1590 290.9365 0001081  58.7796  28.2782 15.83671790  2732
STARLINK-37622          
1 69829U 26154L   26196.58335648 -.01826957  00000+0 -91763-2 0  9995
2 69829  53.1586 290.9283 0001065  64.5311  26.4687 15.83800929  2739
STARLINK-37621          
1 69830U 26154M   26196.58335648 -.01823535  00000+0 -90916-2 0  9995
2 69830  53.1588 290.9202 0000948  68.2360  26.6182 15.83950429  2731
STARLINK-37918          
1 69831U 26154N   26196.58335648 -.01819842  00000+0 -90039-2 0  9998
2 69831  53.1587 290.9122 0000959  75.3940  23.2826 15.84103543  2733
STARLINK-37887          
1 69832U 26154P   26196.58335648 -.01774190  00000+0 -88979-2 0  9995
2 69832  53.1590 290.9043 0001087  63.8529  38.6146 15.84257381  2733
STARLINK-37624          
1 69833U 26154Q   26196.58335648 -.01817946  00000+0 -88883-2 0  9997
2 69833  53.1590 290.8961 0001059  64.4162  42.0612 15.84345113  2739
STARLINK-37769          
1 69834U 26154R   26196.58335648 -.01781353  00000+0 -88563-2 0  9995
2 69834  53.1587 290.8879 0001167  67.5394  42.8796 15.84450190  2738
